[{"OBJECT_NAME":"ONEWEB-0424","OBJECT_ID":"2021-132AE","EPOCH":"2026-02-26T06:29:16.511136","MEAN_MOTION":13.18686295,"ECCENTRICITY":0.00021855,"INCLINATION":87.9241,"RA_OF_ASC_NODE":357.476,"ARG_OF_PERICENTER":81.0871,"MEAN_ANOMALY":279.0509,"EPHEMERIS_TYPE":0,"CLASSIFICATION_TYPE":"U","NORAD_CAT_ID":50497,"ELEMENT_SET_NO":999,"REV_AT_EPOCH":20702,"BSTAR":0.00026802065,"MEAN_MOTION_DOT":1.19e-6,"MEAN_MOTION_DDOT":0},{"OBJECT_NAME":"ONEWEB-0426","OBJECT_ID":"2021-132AF","EPOCH":"2026-02-26T05:32:15.605088","MEAN_MOTION":13.18686022,"ECCENTRICITY":0.00016508,"INCLINATION":87.9242,"RA_OF_ASC_NODE":357.4756,"ARG_OF_PERICENTER":57.3724,"MEAN_ANOMALY":302.7567,"EPHEMERIS_TYPE":0,"CLASSIFICATION_TYPE":"U","NORAD_CAT_ID":50498,"ELEMENT_SET_NO":999,"REV_AT_EPOCH":20696,"BSTAR":1.6960439e-5,"MEAN_MOTION_DOT":2.0e-7,"MEAN_MOTION_DDOT":0},{"OBJECT_NAME":"ONEWEB-0427","OBJECT_ID":"2021-132AG","EPOCH":"2026-02-26T06:26:53.464704","MEAN_MOTION":13.18686624,"ECCENTRICITY":0.00019695,"INCLINATION":87.9245,"RA_OF_ASC_NODE":357.4544,"ARG_OF_PERICENTER":72.5354,"MEAN_ANOMALY":287.5994,"EPHEMERIS_TYPE":0,"CLASSIFICATION_TYPE":"U","NORAD_CAT_ID":50499,"ELEMENT_SET_NO":999,"REV_AT_EPOCH":20699,"BSTAR":0.00013370462,"MEAN_MOTION_DOT":6.6e-7,"MEAN_MOTION_DDOT":0},{"OBJECT_NAME":"ONEWEB-0429","OBJECT_ID":"2021-132AH","EPOCH":"2026-02-26T06:07:53.371776","MEAN_MOTION":13.18684919,"ECCENTRICITY":0.00018286,"INCLINATION":87.9242,"RA_OF_ASC_NODE":357.4898,"ARG_OF_PERICENTER":83.1876,"MEAN_ANOMALY":276.9464,"EPHEMERIS_TYPE":0,"CLASSIFICATION_TYPE":"U","NORAD_CAT_ID":50500,"ELEMENT_SET_NO":999,"REV_AT_EPOCH":20696,"BSTAR":0.00015652985,"MEAN_MOTION_DOT":7.5e-7,"MEAN_MOTION_DDOT":0},{"OBJECT_NAME":"ONEWEB-0430","OBJECT_ID":"2021-132AJ","EPOCH":"2026-02-26T05:51:16.358976","MEAN_MOTION":13.18686352,"ECCENTRICITY":0.00021805,"INCLINATION":87.9249,"RA_OF_ASC_NODE":357.488,"ARG_OF_PERICENTER":80.9967,"MEAN_ANOMALY":279.1412,"EPHEMERIS_TYPE":0,"CLASSIFICATION_TYPE":"U","NORAD_CAT_ID":50501,"ELEMENT_SET_NO":999,"REV_AT_EPOCH":20700,"BSTAR":6.9857017e-5,"MEAN_MOTION_DOT":4.0e-7,"MEAN_MOTION_DDOT":0},{"OBJECT_NAME":"ONEWEB-0432","OBJECT_ID":"2021-132AK","EPOCH":"2026-02-26T06:38:33.414432","MEAN_MOTION":13.18643523,"ECCENTRICITY":0.00024878,"INCLINATION":87.9243,"RA_OF_ASC_NODE":357.4512,"ARG_OF_PERICENTER":72.1595,"MEAN_ANOMALY":287.9809,"EPHEMERIS_TYPE":0,"CLASSIFICATION_TYPE":"U","NORAD_CAT_ID":50502,"ELEMENT_SET_NO":999,"REV_AT_EPOCH":20696,"BSTAR":4.3287083e-5,"MEAN_MOTION_DOT":3.0e-7,"MEAN_MOTION_DDOT":0},{"OBJECT_NAME":"ONEWEB-0440","OBJECT_ID":"2021-132AL","EPOCH":"2026-02-26T06:19:46.068096","MEAN_MOTION":13.18684958,"ECCENTRICITY":0.0001451,"INCLINATION":87.9244,"RA_OF_ASC_NODE":357.4746,"ARG_OF_PERICENTER":83.1928,"MEAN_ANOMALY":276.9369,"EPHEMERIS_TYPE":0,"CLASSIFICATION_TYPE":"U","NORAD_CAT_ID":50503,"ELEMENT_SET_NO":999,"REV_AT_EPOCH":20695,"BSTAR":0.00022176396,"MEAN_MOTION_DOT":1.0e-6,"MEAN_MOTION_DDOT":0},{"OBJECT_NAME":"ONEWEB-0450","OBJECT_ID":"2021-132AM","EPOCH":"2026-02-26T06:10:27.867936","MEAN_MOTION":13.18684625,"ECCENTRICITY":0.00018765,"INCLINATION":87.9235,"RA_OF_ASC_NODE":357.4923,"ARG_OF_PERICENTER":88.4265,"MEAN_ANOMALY":271.7082,"EPHEMERIS_TYPE":0,"CLASSIFICATION_TYPE":"U","NORAD_CAT_ID":50504,"ELEMENT_SET_NO":999,"REV_AT_EPOCH":20698,"BSTAR":0.00019378426,"MEAN_MOTION_DOT":8.9e-7,"MEAN_MOTION_DDOT":0},{"OBJECT_NAME":"ONEWEB-0410","OBJECT_ID":"2022-012A","EPOCH":"2026-02-26T06:35:21.160608","MEAN_MOTION":13.17648039,"ECCENTRICITY":0.0002341,"INCLINATION":87.9136,"RA_OF_ASC_NODE":27.8736,"ARG_OF_PERICENTER":46.1746,"MEAN_ANOMALY":313.9579,"EPHEMERIS_TYPE":0,"CLASSIFICATION_TYPE":"U","NORAD_CAT_ID":51622,"ELEMENT_SET_NO":999,"REV_AT_EPOCH":19909,"BSTAR":-5.8650747e-5,"MEAN_MOTION_DOT":-1.0e-7,"MEAN_MOTION_DDOT":0},{"OBJECT_NAME":"ONEWEB-0411","OBJECT_ID":"2022-012B","EPOCH":"2026-02-26T07:04:17.029056","MEAN_MOTION":13.10373324,"ECCENTRICITY":0.00023151,"INCLINATION":87.8755,"RA_OF_ASC_NODE":58.348,"ARG_OF_PERICENTER":97.9187,"MEAN_ANOMALY":262.2203,"EPHEMERIS_TYPE":0,"CLASSIFICATION_TYPE":"U","NORAD_CAT_ID":51623,"ELEMENT_SET_NO":999,"REV_AT_EPOCH":19476,"BSTAR":0.0016293021,"MEAN_MOTION_DOT":5.81e-6,"MEAN_MOTION_DDOT":0},{"OBJECT_NAME":"ONEWEB-0415","OBJECT_ID":"2022-012C","EPOCH":"2026-02-25T23:39:41.179392","MEAN_MOTION":13.10372948,"ECCENTRICITY":0.00021266,"INCLINATION":87.8753,"RA_OF_ASC_NODE":58.4128,"ARG_OF_PERICENTER":91.1296,"MEAN_ANOMALY":269.0074,"EPHEMERIS_TYPE":0,"CLASSIFICATION_TYPE":"U","NORAD_CAT_ID":51624,"ELEMENT_SET_NO":999,"REV_AT_EPOCH":19472,"BSTAR":0.0017876962,"MEAN_MOTION_DOT":6.37e-6,"MEAN_MOTION_DDOT":0},{"OBJECT_NAME":"ONEWEB-0416","OBJECT_ID":"2022-012D","EPOCH":"2026-02-26T01:46:22.192608","MEAN_MOTION":13.10370247,"ECCENTRICITY":0.00023206,"INCLINATION":87.8752,"RA_OF_ASC_NODE":58.4159,"ARG_OF_PERICENTER":86.3518,"MEAN_ANOMALY":273.7875,"EPHEMERIS_TYPE":0,"CLASSIFICATION_TYPE":"U","NORAD_CAT_ID":51625,"ELEMENT_SET_NO":999,"REV_AT_EPOCH":19477,"BSTAR":0.0013765441,"MEAN_MOTION_DOT":4.93e-6,"MEAN_MOTION_DDOT":0},{"OBJECT_NAME":"ONEWEB-0422","OBJECT_ID":"2022-012E","EPOCH":"2026-02-26T06:49:55.093152","MEAN_MOTION":13.1764762,"ECCENTRICITY":0.00015622,"INCLINATION":87.9137,"RA_OF_ASC_NODE":27.8743,"ARG_OF_PERICENTER":102.5843,"MEAN_ANOMALY":257.5463,"EPHEMERIS_TYPE":0,"CLASSIFICATION_TYPE":"U","NORAD_CAT_ID":51626,"ELEMENT_SET_NO":999,"REV_AT_EPOCH":19920,"BSTAR":0.00019611948,"MEAN_MOTION_DOT":8.9e-7,"MEAN_MOTION_DDOT":0},{"OBJECT_NAME":"ONEWEB-0423","OBJECT_ID":"2022-012F","EPOCH":"2026-02-26T06:40:11.279712","MEAN_MOTION":13.17649134,"ECCENTRICITY":0.00017488,"INCLINATION":87.9136,"RA_OF_ASC_NODE":27.885,"ARG_OF_PERICENTER":82.9908,"MEAN_ANOMALY":277.1422,"EPHEMERIS_TYPE":0,"CLASSIFICATION_TYPE":"U","NORAD_CAT_ID":51627,"ELEMENT_SET_NO":999,"REV_AT_EPOCH":19909,"BSTAR":1.8361241e-5,"MEAN_MOTION_DOT":2.0e-7,"MEAN_MOTION_DDOT":0},{"OBJECT_NAME":"ONEWEB-0425","OBJECT_ID":"2022-012G","EPOCH":"2026-02-26T00:10:44.636448","MEAN_MOTION":13.10369753,"ECCENTRICITY":0.0001781,"INCLINATION":87.8759,"RA_OF_ASC_NODE":58.4059,"ARG_OF_PERICENTER":77.4841,"MEAN_ANOMALY":282.6485,"EPHEMERIS_TYPE":0,"CLASSIFICATION_TYPE":"U","NORAD_CAT_ID":51628,"ELEMENT_SET_NO":999,"REV_AT_EPOCH":19476,"BSTAR":0.00012759,"MEAN_MOTION_DOT":5.7e-7,"MEAN_MOTION_DDOT":0},{"OBJECT_NAME":"ONEWEB-0428","OBJECT_ID":"2022-012H","EPOCH":"2026-02-26T07:01:53.498784","MEAN_MOTION":13.10373591,"ECCENTRICITY":0.00018572,"INCLINATION":87.8755,"RA_OF_ASC_NODE":58.3627,"ARG_OF_PERICENTER":89.2148,"MEAN_ANOMALY":270.9193,"EPHEMERIS_TYPE":0,"CLASSIFICATION_TYPE":"U","NORAD_CAT_ID":51629,"ELEMENT_SET_NO":999,"REV_AT_EPOCH":19476,"BSTAR":0.0021306041,"MEAN_MOTION_DOT":7.56e-6,"MEAN_MOTION_DDOT":0},{"OBJECT_NAME":"ONEWEB-0431","OBJECT_ID":"2022-012J","EPOCH":"2026-02-25T22:58:50.477088","MEAN_MOTION":13.10373736,"ECCENTRICITY":0.00023161,"INCLINATION":87.8768,"RA_OF_ASC_NODE":58.4142,"ARG_OF_PERICENTER":101.676,"MEAN_ANOMALY":258.4627,"EPHEMERIS_TYPE":0,"CLASSIFICATION_TYPE":"U","NORAD_CAT_ID":51630,"ELEMENT_SET_NO":999,"REV_AT_EPOCH":19477,"BSTAR":-0.0013056879,"MEAN_MOTION_DOT":-4.43e-6,"MEAN_MOTION_DDOT":0}]
