ONEWEB-0424             
1 50497U 21132AE  26057.27032999  .00000119  00000+0  26802-3 0  9996
2 50497  87.9241 357.4760 0002185  81.0871 279.0509 13.18686295207023
ONEWEB-0426             
1 50498U 21132AF  26057.23073617  .00000020  00000+0  16960-4 0  9991
2 50498  87.9242 357.4756 0001650  57.3724 302.7567 13.18686022206967
ONEWEB-0427             
1 50499U 21132AG  26057.26867436  .00000066  00000+0  13370-3 0  9996
2 50499  87.9245 357.4544 0001969  72.5354 287.5994 13.18686624206992
ONEWEB-0429             
1 50500U 21132AH  26057.25547884  .00000075  00000+0  15653-3 0  9996
2 50500  87.9242 357.4898 0001828  83.1876 276.9464 13.18684919206961
ONEWEB-0430             
1 50501U 21132AJ  26057.24393934  .00000040  00000+0  69857-4 0  9999
2 50501  87.9249 357.4880 0002180  80.9967 279.1412 13.18686352207005
ONEWEB-0432             
1 50502U 21132AK  26057.27677563  .00000030  00000+0  43287-4 0  9994
2 50502  87.9243 357.4512 0002487  72.1595 287.9809 13.18643523206966
ONEWEB-0440             
1 50503U 21132AL  26057.26372764  .00000100  00000+0  22176-3 0  9990
2 50503  87.9244 357.4746 0001451  83.1928 276.9369 13.18684958206954
ONEWEB-0450             
1 50504U 21132AM  26057.25726699  .00000089  00000+0  19378-3 0  9996
2 50504  87.9235 357.4923 0001876  88.4265 271.7082 13.18684625206984
ONEWEB-0410             
1 51622U 22012A   26057.27455047 -.00000010  00000+0 -58651-4 0  9998
2 51622  87.9136  27.8736 0002341  46.1746 313.9579 13.17648039199090
ONEWEB-0411             
1 51623U 22012B   26057.29464154  .00000581  00000+0  16293-2 0  9995
2 51623  87.8755  58.3480 0002315  97.9187 262.2203 13.10373324194760
ONEWEB-0415             
1 51624U 22012C   26056.98589328  .00000637  00000+0  17877-2 0  9993
2 51624  87.8753  58.4128 0002126  91.1296 269.0074 13.10372948194724
ONEWEB-0416             
1 51625U 22012D   26057.07386797  .00000493  00000+0  13765-2 0  9992
2 51625  87.8752  58.4159 0002320  86.3518 273.7875 13.10370247194773
ONEWEB-0422             
1 51626U 22012E   26057.28466543  .00000089  00000+0  19612-3 0  9993
2 51626  87.9137  27.8743 0001562 102.5843 257.5463 13.17647620199205
ONEWEB-0423             
1 51627U 22012F   26057.27790833  .00000020  00000+0  18361-4 0  9991
2 51627  87.9136  27.8850 0001748  82.9908 277.1422 13.17649134199095
ONEWEB-0425             
1 51628U 22012G   26057.00746107  .00000057  00000+0  12759-3 0  9992
2 51628  87.8759  58.4059 0001781  77.4841 282.6485 13.10369753194767
ONEWEB-0428             
1 51629U 22012H   26057.29298031  .00000756  00000+0  21306-2 0  9995
2 51629  87.8755  58.3627 0001857  89.2148 270.9193 13.10373591194760
ONEWEB-0431             
1 51630U 22012J   26056.95752867 -.00000443  00000+0 -13057-2 0  9990
2 51630  87.8768  58.4142 0002316 101.6760 258.4627 13.10373736194774
